0 COSMOS 2141 (GLONASS)
1 21218U 91025C   13284.07701994  .00000072  00000-0  00000+0 0  5732
2 21218 064.0941 104.9666 0005152 255.0016 069.8204 02.13103062175295
0 COSMOS 2141 (GLONASS)
1 21218U 91025C   13286.99813653  .00000084  00000-0  00000+0 0  5745
2 21218 064.0950 104.8648 0005149 255.0357 150.7800 02.13103160175367
0 COSMOS 2141 (GLONASS)
1 21218U 91025C   13290.69243703  .00000054  00000-0  00000+0 0  5758
2 21218 064.0948 104.7354 0005113 254.8596 105.1206 02.13103079175431
0 COSMOS 2141 (GLONASS)
1 21218U 91025C   13290.69244713  .00000000  00000-0  10000-3 0  5767
2 21218 064.0969 104.7359 0005114 254.5262 105.4580 02.13104335175442
0 COSMOS 2141 (GLONASS)
1 21218U 91025C   13293.81349041  .00000027  00000-0  00000+0 0  5768
2 21218 064.0971 104.6273 0005144 254.8943 339.4654 02.13103200175509
